NORAD_CAT_ID,OBJECT_NAME,OBJECT_TYPE,EPOCH,MEAN_MOTION,ECCENTRICITY,INCLINATION,RA_OF_ASC_NODE,ARG_OF_PERICENTER,MEAN_ANOMALY,BSTAR,MEAN_MOTION_DOT,MEAN_MOTION_DDOT,TLE_LINE0,TLE_LINE1,TLE_LINE2,SEMIMAJOR_AXIS,PERIOD,APOGEE,PERIGEE,DECAYED
52861.0,STARLINK-4112,PAYLOAD,2022-09-09 14:00:01,15.08877359,0.0001927,53.2185,357.2596,58.6544,120.2846,-0.0029649,-0.00047215,0.0,0 STARLINK-4112,1 52861U 22062AH  22252.58334491 -.00047215  00000-0 -29649-2 0  9997,2 52861  53.2185 357.2596 0001927  58.6544 120.2846 15.08877359  1306,6917.766,95.435,540.964,538.298,0.0
52861.0,STARLINK-4112,PAYLOAD,2022-09-09 22:00:00,15.0885712,0.0001786999999999,53.2184,355.7627,54.7414,135.8164,-0.0033055999999999,-0.00052538,0.0,0 STARLINK-4112,1 52861U 22062AH  22252.91667824 -.00052538  00000-0 -33056-2 0  9994,2 52861  53.2184 355.7627 0001787  54.7414 135.8164 15.08857120  1309,6917.828,95.436,540.929,538.457,0.0
52861.0,STARLINK-4112,PAYLOAD,2022-09-10 06:00:02,15.08823335,0.0001699,53.2186,354.2652,60.2853,141.9329,0.0025629999999999,0.0004072,0.0,0 STARLINK-4112,1 52861U 22062AH  22253.25002315  .00040720  00000-0  25630-2 0  9997,2 52861  53.2186 354.2652 0001699  60.2853 141.9329 15.08823335 13725,6917.931,95.439,540.972,538.621,0.0
52861.0,STARLINK-4112,PAYLOAD,2022-09-10 14:00:01,15.08841257,0.0001815,53.2186,352.7708,54.0177,159.7198,-0.00089317,-0.00014475,0.0,0 STARLINK-4112,1 52861U 22062AH  22253.58334491 -.00014475  00000-0 -89317-3 0  9999,2 52861  53.2186 352.7708 0001815  54.0177 159.7198 15.08841257 13779,6917.877,95.437,540.997,538.486,0.0
52861.0,STARLINK-4112,PAYLOAD,2022-09-10 22:00:00,15.08850302,0.0001706,53.2187,351.2738,51.298,174.0367,-0.0024129,-0.00038496,0.0,0 STARLINK-4112,1 52861U 22062AH  22253.91667824 -.00038496  00000-0 -24129-2 0  9993,2 52861  53.2187 351.2738 0001706  51.2980 174.0367 15.08850302  1302,6917.849,95.437,540.894,538.534,0.0
52861.0,STARLINK-4112,PAYLOAD,2022-09-11 06:00:00,15.08827688,0.0001613,53.2189,349.7766,57.5168,179.4093,0.0023548,0.00037375,0.0,0 STARLINK-4112,1 52861U 22062AH  22254.25001157  .00037375  00000-0  23548-2 0  9999,2 52861  53.2189 349.7766 0001613  57.5168 179.4093 15.08827688 13872,6917.918000000002,95.438,540.899,538.6669999999998,0.0
52861.0,STARLINK-4112,PAYLOAD,2022-09-11 14:00:01,15.08849617,0.0001768,53.2189,348.2821,50.2397,198.2843,-0.00012336,-2.251e-05,0.0,0 STARLINK-4112,1 52861U 22062AH  22254.58334491 -.00002251  00000-0 -12336-3 0  9996,2 52861  53.2189 348.2821 0001768  50.2397 198.2843 15.08849617  1306,6917.851,95.437,540.939,538.493,0.0
52861.0,STARLINK-4112,PAYLOAD,2022-09-11 22:00:00,15.08858347,0.0001659,53.219,346.785,48.2447,211.8853,-0.0021281,-0.00034014,0.0,0 STARLINK-4112,1 52861U 22062AH  22254.91667824 -.00034014  00000-0 -21281-2 0  9992,2 52861  53.2190 346.7850 0001659  48.2447 211.8853 15.08858347  1308,6917.824000000001,95.436,540.837,538.5419999999998,0.0
52861.0,STARLINK-4112,PAYLOAD,2022-09-12 12:00:00,15.08837857,0.0001774999999999,53.2191,344.167,50.1696,140.2676,-0.00068227,-0.00011129,0.0,0 STARLINK-4112,1 52861U 22062AH  22255.50001157 -.00011129  00000-0 -68227-3 0  9993,2 52861  53.2191 344.1670 0001775  50.1696 140.2676 15.08837857 14066,6917.887,95.438,540.98,538.524,0.0
52861.0,STARLINK-4112,PAYLOAD,2022-09-12 14:00:01,15.08822715,0.0001836,53.2191,343.7932,49.2813,234.0569,0.0015092,0.00023801,0.0,0 STARLINK-4112,1 52861U 22062AH  22255.58334491  .00023801  00000-0  15092-2 0  9990,2 52861  53.2191 343.7932 0001836  49.2813 234.0569 15.08822715  1303,6917.933000000001,95.439,541.068,538.528,0.0
52861.0,STARLINK-4112,PAYLOAD,2022-09-12 22:00:00,15.0886422,0.0001686999999999,53.2191,342.2965,48.4065,246.5122,-0.0042873999999999,-0.00067924,0.0,0 STARLINK-4112,1 52861U 22062AH  22255.91667824 -.00067924  00000-0 -42874-2 0  9990,2 52861  53.2191 342.2965 0001687  48.4065 246.5122 15.08864220  1307,6917.806,95.436,540.8380000000002,538.504,0.0
52861.0,STARLINK-4112,PAYLOAD,2022-09-13 06:00:00,15.08832244,0.0001578,53.2192,340.7989,53.5294,252.9937,0.0020429,0.00032368,0.0,0 STARLINK-4112,1 52861U 22062AH  22256.25001157  .00032368  00000-0  20429-2 0  9993,2 52861  53.2192 340.7989 0001578  53.5294 252.9937 15.08832244 14172,6917.904,95.438,540.861,538.677,0.0
52861.0,STARLINK-4112,PAYLOAD,2022-09-13 14:00:01,15.08851644,0.0001754999999999,53.219,339.3044,45.7866,272.3367,-0.0014997,-0.00024084,0.0,0 STARLINK-4112,1 52861U 22062AH  22256.58334491 -.00024084  00000-0 -14997-2 0  9990,2 52861  53.2190 339.3044 0001755  45.7866 272.3367 15.08851644  1300,6917.845,95.437,540.924,538.496,0.0
52861.0,STARLINK-4112,PAYLOAD,2022-09-13 16:00:00,15.088381900000002,0.0001764,53.2186,338.9316,43.8772,7.1507,-0.0003283999999999,-5.511e-05,0.0,0 STARLINK-4112,1 52861U 22062AH  22256.66667824 -.00005511  00000-0 -32840-3 0  9990,2 52861  53.2186 338.9316 0001764  43.8772   7.1507 15.08838190 14234,6917.886,95.438,540.971,538.531,0.0
52861.0,STARLINK-4112,PAYLOAD,2022-09-13 22:00:00,15.08835742,0.0001635,53.2188,337.807,47.0697,282.6382,-0.0038009,-0.00060267,0.0,0 STARLINK-4112,1 52861U 22062AH  22256.91667824 -.00060267  00000-0 -38009-2 0  9999,2 52861  53.2188 337.8070 0001635  47.0697 282.6382 15.08835742  1305,6917.893,95.438,540.889,538.627,0.0
52861.0,STARLINK-4112,PAYLOAD,2022-09-14 06:00:00,15.08809808,0.0001578,53.2189,336.3101,54.3925,286.883,0.0011957,0.00018777,0.0,0 STARLINK-4112,1 52861U 22062AH  22257.25001157  .00018777  00000-0  11957-2 0  9998,2 52861  53.2189 336.3101 0001578  54.3925 286.8830 15.08809808 14320,6917.973000000001,95.439,540.929,538.746,0.0
52861.0,STARLINK-4112,PAYLOAD,2022-09-14 14:00:01,15.08870041,0.000167,53.2182,334.8205,47.2821,305.5378,-0.0022667,-0.00036211,0.0,0 STARLINK-4112,1 52861U 22062AH  22257.58334491 -.00036211  00000-0 -22667-2 0  9999,2 52861  53.2182 334.8205 0001670  47.2821 305.5378 15.08870041  1307,6917.7890000000025,95.436,540.809,538.498,0.0
52861.0,STARLINK-4112,PAYLOAD,2022-09-14 22:00:00,15.08841311,0.0001654,53.2182,333.3180000000001,49.7494,314.6664,-0.00087703,-0.00014219,0.0,0 STARLINK-4112,1 52861U 22062AH  22257.91667824 -.00014219  00000-0 -87703-3 0  9992,2 52861  53.2182 333.3180 0001654  49.7494 314.6664 15.08841311  1305,6917.876,95.437,540.886,538.597,0.0
52861.0,STARLINK-4112,PAYLOAD,2022-09-15 14:00:01,15.08850768,0.0001745,53.2181,330.3266,46.9584,340.6558,-0.00017621,-3.092e-05,0.0,0 STARLINK-4112,1 52861U 22062AH  22258.58334491 -.00003092  00000-0 -17621-3 0  9996,2 52861  53.2181 330.3266 0001745  46.9584 340.6558 15.08850768  1303,6917.847,95.437,540.92,538.505,0.0
52861.0,STARLINK-4112,PAYLOAD,2022-09-15 22:00:00,15.08845,0.0001593,53.2177,328.8288,48.1024,351.1223,-0.00036449,-6.085e-05,0.0,0 STARLINK-4112,1 52861U 22062AH  22258.91667824 -.00006085  00000-0 -36449-3 0  9996,2 52861  53.2177 328.8288 0001593  48.1024 351.1223 15.08845000  1307,6917.865,95.437,540.832,538.628,0.0
52861.0,STARLINK-4112,PAYLOAD,2022-09-16 02:00:01,15.08822504,0.0001509,53.2175,328.08,50.1997,174.8288,0.0031969999999999,0.00050936,0.0,0 STARLINK-4112,1 52861U 22062AH  22259.08334491  .00050936  00000-0  31970-2 0  9991,2 52861  53.2175 328.0800 0001509  50.1997 174.8288 15.08822504 14608,6917.934,95.439,540.8430000000002,538.755,0.0
52861.0,STARLINK-4112,PAYLOAD,2022-09-16 14:00:01,15.0881829,0.0001684,53.2177,325.8375,43.2457,19.1871,0.00084217,0.00013133,0.0,0 STARLINK-4112,1 52861U 22062AH  22259.58334491  .00013133  00000-0  84217-3 0  9997,2 52861  53.2177 325.8375 0001684  43.2457  19.1871 15.08818290  1309,6917.946999999999,95.439,540.977,538.6469999999998,0.0
52861.0,STARLINK-4112,PAYLOAD,2022-09-16 16:00:00,15.08822156,0.0001704,53.2174,325.4633,41.756,113.5717,0.00034322,5.176e-05,0.0,0 STARLINK-4112,1 52861U 22062AH  22259.66667824  .00005176  00000-0  34322-3 0  9995,2 52861  53.2174 325.4633 0001704  41.7560 113.5717 15.08822156 14690,6917.935,95.439,540.979,538.621,0.0
52861.0,STARLINK-4112,PAYLOAD,2022-09-16 22:00:00,15.08819273,0.0001609,53.2175,324.3395,47.1667,26.8474,-0.0011505999999999,-0.00018543,0.0,0 STARLINK-4112,1 52861U 22062AH  22259.91667824 -.00018543  00000-0 -11506-2 0  9995,2 52861  53.2175 324.3395 0001609  47.1667  26.8474 15.08819273  1302,6917.944,95.439,540.922,538.696,0.0
52861.0,STARLINK-4112,PAYLOAD,2022-09-17 14:00:01,15.08799841,0.0001816,53.2176,321.3484,44.3324,52.819,0.0028686999999999,0.00045613,0.0,0 STARLINK-4112,1 52861U 22062AH  22260.58334491  .00045613  00000-0  28687-2 0  9995,2 52861  53.2176 321.3484 0001816  44.3324  52.8190 15.08799841 14821,6918.003000000002,95.44,541.124,538.612,0.0
52861.0,STARLINK-4112,PAYLOAD,2022-09-17 22:00:00,15.08828937,0.0001696999999999,53.2177,319.8505,47.3638,61.3595,0.00021567,3.145e-05,0.0,0 STARLINK-4112,1 52861U 22062AH  22260.91667824  .00003145  00000-0  21567-3 0  9996,2 52861  53.2177 319.8505 0001697  47.3638  61.3595 15.08828937  1308,6917.9140000000025,95.438,540.953,538.605,0.0
52861.0,STARLINK-4112,PAYLOAD,2022-09-18 06:00:00,15.08852341,0.0001756,53.2177,318.3541,50.0659,70.2377,-0.00060477,-9.903e-05,0.0,0 STARLINK-4112,1 52861U 22062AH  22261.25001157 -.00009903  00000-0 -60477-3 0  9998,2 52861  53.2177 318.3541 0001756  50.0659  70.2377 15.08852341 14927,6917.843000000003,95.437,540.922,538.493,0.0
52861.0,STARLINK-4112,PAYLOAD,2022-09-18 14:00:01,15.08822278,0.0001909999999999,53.2178,316.8593,43.4216,88.5541,0.003299,0.00052582,0.0,0 STARLINK-4112,1 52861U 22062AH  22261.58335648  .00052582  00000-0  32990-2 0  9996,2 52861  53.2178 316.8593 0001910  43.4216  88.5541 15.08822278  1304,6917.935,95.439,541.121,538.4780000000002,0.0
52861.0,STARLINK-4112,PAYLOAD,2022-09-18 22:00:00,15.08858085,0.0001730999999999,53.2181,315.3613,45.7254,97.79,-0.0023214,-0.00037062,0.0,0 STARLINK-4112,1 52861U 22062AH  22261.91667824 -.00037062  00000-0 -23214-2 0  9994,2 52861  53.2181 315.3613 0001731  45.7254  97.7900 15.08858085  1309,6917.825,95.436,540.888,538.493,0.0
